KUIPER-00123            
1 65952U 25228F   26073.89247336 -.00000835  00000+0 -80629-4 0  9992
2 65952  51.8999 340.0886 0000756  90.9178 269.1871 14.79910924 23961
KUIPER-00124            
1 65953U 25228G   26073.96809831  .00002980  00000+0  41989-3 0  9991
2 65953  51.8998 332.2393 0000730  98.7841 261.3204 14.79911374 24080
KUIPER-00125            
1 65954U 25228H   26073.91664046  .00004752  00000+0  65178-3 0  9999
2 65954  51.9012 317.4918 0000757  92.1652 267.9397 14.79939801 24286
KUIPER-00126            
1 65955U 25228J   26073.92872592  .00005492  00000+0  74749-3 0  9994
2 65955  51.9018 337.4357 0000939 103.8807 256.2260 14.80008689 24009
KUIPER-00127            
1 65956U 25228K   26073.96778183  .00002835  00000+0  43520-3 0  9991
2 65956  51.8995 328.8221 0001116 194.7526 165.3403 14.76350869 24130
KUIPER-00128            
1 65957U 25228L   26073.97075933  .00005635  00000+0  76757-3 0  9995
2 65957  51.9019 329.7677 0000711 108.1027 252.0013 14.79928849 24110
KUIPER-00129            
1 65958U 25228M   26073.94256353  .00005426  00000+0  74084-3 0  9999
2 65958  51.9000 324.8778 0001002  90.6108 269.4969 14.79898822 24184
KUIPER-00130            
1 65959U 25228N   26073.97349328  .00003505  00000+0  48888-3 0  9997
2 65959  51.9038 327.2487 0000798  74.9374 285.1677 14.79906968 14441
KUIPER-00134            
1 65960U 25228P   26073.91220049  .00039483  00000+0  10172-2 0  9999
2 65960  51.8762 295.0778 0005184 343.3392  16.7425 15.38812782 24590
KUIPER-00135            
1 65961U 25228Q   26073.93976792  .00005611  00000+0  76475-3 0  9990
2 65961  51.9035 327.4597 0000735 108.8387 251.2656 14.79911323 24147
KUIPER-00136            
1 65962U 25228R   26073.90862417 -.00000308  00000+0 -11368-4 0  9997
2 65962  51.9010 325.0659 0001349 130.7298 229.3782 14.79920354 24174
KUIPER-00137            
1 65963U 25228S   26072.22238331  .00068222  00000+0  91478-2 0  9999
2 65963  51.9051 329.9797 0000785 165.8059 194.2925 14.78714320 23961
KUIPER-00138            
1 65964U 25228T   26073.88024161  .00005018  00000+0  68706-3 0  9990
2 65964  51.8999 320.1414 0001083  82.7672 277.3413 14.79918065 24241
KUIPER-00140            
1 65965U 25228U   26073.94513346  .00004959  00000+0  67939-3 0  9996
2 65965  51.8992 322.4367 0000969 101.9100 258.1972 14.79913237 24219
KUIPER-00141            
1 65966U 25228V   26073.88288469  .00005221  00000+0  71350-3 0  9990
2 65966  51.9028 317.7251 0000832 114.7530 245.3519 14.79923445 24271
KUIPER-00146            
1 65967U 25228W   26073.97583078  .00047546  00000+0  67187-2 0  9993
2 65967  51.9031 319.7655 0000756  25.3595 334.7403 14.76674576 24257
